LEMUR-2-GREENBERG       
1 42837U 17042N   26068.46200528  .00019778  00000+0  72539-3 0  9997
2 42837  97.3781 249.8007 0009157   4.0119 356.1192 15.27971352473146
STARLINK-32160          
1 60261U 24131G   26068.35627362 -.00003200  00000+0 -95981-4 0  9994
2 60261  53.1607  54.2509 0001320  84.7450 275.3702 15.30196385 91713
